STARLINK-30327          
1 57707U 23129K   26068.51769668  .00007635  00000+0  29314-3 0  9995
2 57707  42.9974  85.9834 0023030  70.8320 289.5022 15.26626807140903
STARLINK-34777          
1 65339U 25189S   26068.67800763  .00025076  00000+0  85593-3 0  9992
2 65339  53.1575 206.8908 0000922  83.7399 276.3707 15.30199530 31113
