[{"OBJECT_NAME":"STARLINK-30327","OBJECT_ID":"2023-129K","EPOCH":"2026-03-09T12:25:28.993152","MEAN_MOTION":15.26626807,"ECCENTRICITY":0.00230309,"INCLINATION":42.9974,"RA_OF_ASC_NODE":85.9834,"ARG_OF_PERICENTER":70.832,"MEAN_ANOMALY":289.5022,"EPHEMERIS_TYPE":0,"CLASSIFICATION_TYPE":"U","NORAD_CAT_ID":57707,"ELEMENT_SET_NO":999,"REV_AT_EPOCH":14090,"BSTAR":0.00029313824,"MEAN_MOTION_DOT":7.635e-5,"MEAN_MOTION_DDOT":0},{"OBJECT_NAME":"STARLINK-34777","OBJECT_ID":"2025-189S","EPOCH":"2026-03-09T16:16:19.859232","MEAN_MOTION":15.3019953,"ECCENTRICITY":9.224e-5,"INCLINATION":53.1575,"RA_OF_ASC_NODE":206.8908,"ARG_OF_PERICENTER":83.7399,"MEAN_ANOMALY":276.3707,"EPHEMERIS_TYPE":0,"CLASSIFICATION_TYPE":"U","NORAD_CAT_ID":65339,"ELEMENT_SET_NO":999,"REV_AT_EPOCH":3111,"BSTAR":0.00085592742,"MEAN_MOTION_DOT":0.00025076,"MEAN_MOTION_DDOT":0}]
